[{"OBJECT_NAME":"STARLINK-35315","OBJECT_ID":"2025-265AD","EPOCH":"2026-03-08T23:44:14.252640","MEAN_MOTION":15.27594453,"ECCENTRICITY":0.00023914,"INCLINATION":43.0051,"RA_OF_ASC_NODE":282.1148,"ARG_OF_PERICENTER":271.0191,"MEAN_ANOMALY":89.0386,"EPHEMERIS_TYPE":0,"CLASSIFICATION_TYPE":"U","NORAD_CAT_ID":66543,"ELEMENT_SET_NO":999,"REV_AT_EPOCH":1700,"BSTAR":0.0010483897,"MEAN_MOTION_DOT":0.00028713,"MEAN_MOTION_DDOT":0},{"OBJECT_NAME":"COSMOS 2251 DEB","OBJECT_ID":"1993-036BPR","EPOCH":"2026-02-24T07:57:21.236256","MEAN_MOTION":15.23776337,"ECCENTRICITY":0.00166824,"INCLINATION":73.9787,"RA_OF_ASC_NODE":76.2838,"ARG_OF_PERICENTER":284.1156,"MEAN_ANOMALY":75.8189,"EPHEMERIS_TYPE":0,"CLASSIFICATION_TYPE":"U","NORAD_CAT_ID":37966,"ELEMENT_SET_NO":999,"REV_AT_EPOCH":86459,"BSTAR":0.0031189174,"MEAN_MOTION_DOT":0.00076101,"MEAN_MOTION_DDOT":0}]
